[{"OBJECT_NAME":"ONEWEB-0365","OBJECT_ID":"2021-090N","EPOCH":"2025-09-06T06:04:02.605152","MEAN_MOTION":13.19724108,"ECCENTRICITY":0.00016752,"INCLINATION":87.9281,"RA_OF_ASC_NODE":1.3998,"ARG_OF_PERICENTER":97.947,"MEAN_ANOMALY":262.1853,"EPHEMERIS_TYPE":0,"CLASSIFICATION_TYPE":"U","NORAD_CAT_ID":49291,"ELEMENT_SET_NO":999,"REV_AT_EPOCH":18897,"BSTAR":0.00018282076,"MEAN_MOTION_DOT":8.6e-7,"MEAN_MOTION_DDOT":0},{"OBJECT_NAME":"ONEWEB-0366","OBJECT_ID":"2021-090P","EPOCH":"2025-09-06T06:55:00.444576","MEAN_MOTION":13.14502205,"ECCENTRICITY":0.00018607,"INCLINATION":87.9089,"RA_OF_ASC_NODE":346.2398,"ARG_OF_PERICENTER":99.5522,"MEAN_ANOMALY":260.5818,"EPHEMERIS_TYPE":0,"CLASSIFICATION_TYPE":"U","NORAD_CAT_ID":49292,"ELEMENT_SET_NO":999,"REV_AT_EPOCH":19026,"BSTAR":-0.00020735073,"MEAN_MOTION_DOT":-6.4e-7,"MEAN_MOTION_DDOT":0},{"OBJECT_NAME":"ONEWEB-0367","OBJECT_ID":"2021-090Q","EPOCH":"2025-09-06T05:26:18.280608","MEAN_MOTION":13.20773396,"ECCENTRICITY":0.00017081,"INCLINATION":87.9288,"RA_OF_ASC_NODE":331.0394,"ARG_OF_PERICENTER":102.5329,"MEAN_ANOMALY":257.5996,"EPHEMERIS_TYPE":0,"CLASSIFICATION_TYPE":"U","NORAD_CAT_ID":49293,"ELEMENT_SET_NO":999,"REV_AT_EPOCH":19234,"BSTAR":6.1203773e-5,"MEAN_MOTION_DOT":3.8e-7,"MEAN_MOTION_DDOT":0},{"OBJECT_NAME":"ONEWEB-0368","OBJECT_ID":"2021-090R","EPOCH":"2025-09-06T06:36:45.197568","MEAN_MOTION":13.2077111,"ECCENTRICITY":0.00020343,"INCLINATION":87.9287,"RA_OF_ASC_NODE":331.0659,"ARG_OF_PERICENTER":74.7539,"MEAN_ANOMALY":285.3819,"EPHEMERIS_TYPE":0,"CLASSIFICATION_TYPE":"U","NORAD_CAT_ID":49294,"ELEMENT_SET_NO":999,"REV_AT_EPOCH":19350,"BSTAR":0.0002786767,"MEAN_MOTION_DOT":1.26e-6,"MEAN_MOTION_DDOT":0},{"OBJECT_NAME":"ONEWEB-0369","OBJECT_ID":"2021-090S","EPOCH":"2025-09-06T05:57:13.678272","MEAN_MOTION":13.19729509,"ECCENTRICITY":0.00017468,"INCLINATION":87.9282,"RA_OF_ASC_NODE":1.4322,"ARG_OF_PERICENTER":96.6713,"MEAN_ANOMALY":263.4619,"EPHEMERIS_TYPE":0,"CLASSIFICATION_TYPE":"U","NORAD_CAT_ID":49295,"ELEMENT_SET_NO":999,"REV_AT_EPOCH":18896,"BSTAR":-0.0028871864,"MEAN_MOTION_DOT":-1.143e-5,"MEAN_MOTION_DDOT":0},{"OBJECT_NAME":"ONEWEB-0370","OBJECT_ID":"2021-090T","EPOCH":"2025-09-06T05:39:55.742976","MEAN_MOTION":13.20773613,"ECCENTRICITY":0.00018385,"INCLINATION":87.9292,"RA_OF_ASC_NODE":331.0454,"ARG_OF_PERICENTER":110.0668,"MEAN_ANOMALY":250.0664,"EPHEMERIS_TYPE":0,"CLASSIFICATION_TYPE":"U","NORAD_CAT_ID":49296,"ELEMENT_SET_NO":999,"REV_AT_EPOCH":19238,"BSTAR":0.00019728664,"MEAN_MOTION_DOT":9.3e-7,"MEAN_MOTION_DDOT":0},{"OBJECT_NAME":"ONEWEB-0371","OBJECT_ID":"2021-090U","EPOCH":"2025-09-06T06:08:35.617920","MEAN_MOTION":13.19724434,"ECCENTRICITY":0.00016854,"INCLINATION":87.9278,"RA_OF_ASC_NODE":1.42,"ARG_OF_PERICENTER":101.0499,"MEAN_ANOMALY":259.0823,"EPHEMERIS_TYPE":0,"CLASSIFICATION_TYPE":"U","NORAD_CAT_ID":49297,"ELEMENT_SET_NO":999,"REV_AT_EPOCH":18900,"BSTAR":0.00016948035,"MEAN_MOTION_DOT":8.1e-7,"MEAN_MOTION_DDOT":0},{"OBJECT_NAME":"ONEWEB-0372","OBJECT_ID":"2021-090V","EPOCH":"2025-09-06T05:23:50.697312","MEAN_MOTION":13.20771057,"ECCENTRICITY":0.00017965,"INCLINATION":87.9281,"RA_OF_ASC_NODE":331.0514,"ARG_OF_PERICENTER":96.1893,"MEAN_ANOMALY":263.9445,"EPHEMERIS_TYPE":0,"CLASSIFICATION_TYPE":"U","NORAD_CAT_ID":49298,"ELEMENT_SET_NO":999,"REV_AT_EPOCH":19235,"BSTAR":7.7103519e-5,"MEAN_MOTION_DOT":4.4e-7,"MEAN_MOTION_DDOT":0},{"OBJECT_NAME":"ONEWEB-0373","OBJECT_ID":"2021-090W","EPOCH":"2025-09-06T06:02:39.724224","MEAN_MOTION":13.20770443,"ECCENTRICITY":0.0001985,"INCLINATION":87.9287,"RA_OF_ASC_NODE":331.0593,"ARG_OF_PERICENTER":100.3918,"MEAN_ANOMALY":259.7439,"EPHEMERIS_TYPE":0,"CLASSIFICATION_TYPE":"U","NORAD_CAT_ID":49299,"ELEMENT_SET_NO":999,"REV_AT_EPOCH":19354,"BSTAR":0.00038054633,"MEAN_MOTION_DOT":1.68e-6,"MEAN_MOTION_DDOT":0},{"OBJECT_NAME":"ONEWEB-0374","OBJECT_ID":"2021-090X","EPOCH":"2025-09-06T06:36:43.922304","MEAN_MOTION":13.14504886,"ECCENTRICITY":0.00022841,"INCLINATION":87.9087,"RA_OF_ASC_NODE":346.2191,"ARG_OF_PERICENTER":88.9989,"MEAN_ANOMALY":271.1402,"EPHEMERIS_TYPE":0,"CLASSIFICATION_TYPE":"U","NORAD_CAT_ID":49300,"ELEMENT_SET_NO":999,"REV_AT_EPOCH":19026,"BSTAR":0.00029368538,"MEAN_MOTION_DOT":1.22e-6,"MEAN_MOTION_DDOT":0},{"OBJECT_NAME":"ONEWEB-0375","OBJECT_ID":"2021-090Y","EPOCH":"2025-09-06T05:44:28.442976","MEAN_MOTION":13.20770908,"ECCENTRICITY":0.00025234,"INCLINATION":87.9288,"RA_OF_ASC_NODE":331.0407,"ARG_OF_PERICENTER":97.4637,"MEAN_ANOMALY":262.6783,"EPHEMERIS_TYPE":0,"CLASSIFICATION_TYPE":"U","NORAD_CAT_ID":49301,"ELEMENT_SET_NO":999,"REV_AT_EPOCH":19304,"BSTAR":-0.00043681555,"MEAN_MOTION_DOT":-1.65e-6,"MEAN_MOTION_DDOT":0},{"OBJECT_NAME":"ONEWEB-0376","OBJECT_ID":"2021-090Z","EPOCH":"2025-09-06T06:06:19.297728","MEAN_MOTION":13.19727577,"ECCENTRICITY":0.00015648,"INCLINATION":87.928,"RA_OF_ASC_NODE":1.4022,"ARG_OF_PERICENTER":96.3522,"MEAN_ANOMALY":263.7789,"EPHEMERIS_TYPE":0,"CLASSIFICATION_TYPE":"U","NORAD_CAT_ID":49302,"ELEMENT_SET_NO":999,"REV_AT_EPOCH":18900,"BSTAR":0.00017566284,"MEAN_MOTION_DOT":8.3e-7,"MEAN_MOTION_DDOT":0},{"OBJECT_NAME":"ONEWEB-0377","OBJECT_ID":"2021-090AA","EPOCH":"2025-09-06T05:24:15.212448","MEAN_MOTION":13.2077187,"ECCENTRICITY":0.00020221,"INCLINATION":87.9291,"RA_OF_ASC_NODE":331.0381,"ARG_OF_PERICENTER":105.1799,"MEAN_ANOMALY":254.9558,"EPHEMERIS_TYPE":0,"CLASSIFICATION_TYPE":"U","NORAD_CAT_ID":49303,"ELEMENT_SET_NO":999,"REV_AT_EPOCH":19303,"BSTAR":4.8568742e-5,"MEAN_MOTION_DOT":3.3e-7,"MEAN_MOTION_DDOT":0},{"OBJECT_NAME":"ONEWEB-0378","OBJECT_ID":"2021-090AB","EPOCH":"2025-09-06T05:56:00.219264","MEAN_MOTION":13.20774023,"ECCENTRICITY":0.0002021,"INCLINATION":87.93,"RA_OF_ASC_NODE":331.0464,"ARG_OF_PERICENTER":97.7268,"MEAN_ANOMALY":262.4095,"EPHEMERIS_TYPE":0,"CLASSIFICATION_TYPE":"U","NORAD_CAT_ID":49304,"ELEMENT_SET_NO":999,"REV_AT_EPOCH":19230,"BSTAR":0.00029121843,"MEAN_MOTION_DOT":1.31e-6,"MEAN_MOTION_DDOT":0},{"OBJECT_NAME":"ONEWEB-0379","OBJECT_ID":"2021-090AC","EPOCH":"2025-09-06T06:29:53.436768","MEAN_MOTION":13.14503349,"ECCENTRICITY":0.00018117,"INCLINATION":87.9088,"RA_OF_ASC_NODE":346.2271,"ARG_OF_PERICENTER":95.4811,"MEAN_ANOMALY":264.6526,"EPHEMERIS_TYPE":0,"CLASSIFICATION_TYPE":"U","NORAD_CAT_ID":49305,"ELEMENT_SET_NO":999,"REV_AT_EPOCH":19026,"BSTAR":0.00053837591,"MEAN_MOTION_DOT":2.12e-6,"MEAN_MOTION_DDOT":0},{"OBJECT_NAME":"ONEWEB-0380","OBJECT_ID":"2021-090AD","EPOCH":"2025-09-06T06:01:46.383456","MEAN_MOTION":13.19724383,"ECCENTRICITY":0.00019655,"INCLINATION":87.9279,"RA_OF_ASC_NODE":1.4308,"ARG_OF_PERICENTER":102.4516,"MEAN_ANOMALY":257.6837,"EPHEMERIS_TYPE":0,"CLASSIFICATION_TYPE":"U","NORAD_CAT_ID":49306,"ELEMENT_SET_NO":999,"REV_AT_EPOCH":18897,"BSTAR":0.00014892019,"MEAN_MOTION_DOT":7.3e-7,"MEAN_MOTION_DDOT":0},{"OBJECT_NAME":"ONEWEB-0381","OBJECT_ID":"2021-090AE","EPOCH":"2025-09-06T07:08:35.808288","MEAN_MOTION":13.20772379,"ECCENTRICITY":0.00021559,"INCLINATION":87.9288,"RA_OF_ASC_NODE":331.0334,"ARG_OF_PERICENTER":97.9782,"MEAN_ANOMALY":262.1597,"EPHEMERIS_TYPE":0,"CLASSIFICATION_TYPE":"U","NORAD_CAT_ID":49307,"ELEMENT_SET_NO":999,"REV_AT_EPOCH":19235,"BSTAR":0.00015968222,"MEAN_MOTION_DOT":7.8e-7,"MEAN_MOTION_DDOT":0}]
