ONEWEB-0365             
1 49291U 21090N   25249.25280793  .00000086  00000+0  18282-3 0  9992
2 49291  87.9281   1.3998 0001675  97.9470 262.1853 13.19724108188973
ONEWEB-0366             
1 49292U 21090P   25249.28819959 -.00000064  00000+0 -20735-3 0  9992
2 49292  87.9089 346.2398 0001860  99.5522 260.5818 13.14502205190262
ONEWEB-0367             
1 49293U 21090Q   25249.22660047  .00000038  00000+0  61204-4 0  9995
2 49293  87.9288 331.0394 0001708 102.5329 257.5996 13.20773396192345
ONEWEB-0368             
1 49294U 21090R   25249.27552312  .00000126  00000+0  27868-3 0  9991
2 49294  87.9287 331.0659 0002034  74.7539 285.3819 13.20771110193509
ONEWEB-0369             
1 49295U 21090S   25249.24807498 -.00001143  00000+0 -28872-2 0  9994
2 49295  87.9282   1.4322 0001746  96.6713 263.4619 13.19729509188968
ONEWEB-0370             
1 49296U 21090T   25249.23606184  .00000093  00000+0  19729-3 0  9996
2 49296  87.9292 331.0454 0001838 110.0668 250.0664 13.20773613192380
ONEWEB-0371             
1 49297U 21090U   25249.25596780  .00000081  00000+0  16948-3 0  9996
2 49297  87.9278   1.4200 0001685 101.0499 259.0823 13.19724434189000
ONEWEB-0372             
1 49298U 21090V   25249.22489233  .00000044  00000+0  77104-4 0  9999
2 49298  87.9281 331.0514 0001796  96.1893 263.9445 13.20771057192351
ONEWEB-0373             
1 49299U 21090W   25249.25184866  .00000168  00000+0  38055-3 0  9995
2 49299  87.9287 331.0593 0001985 100.3918 259.7439 13.20770443193547
ONEWEB-0374             
1 49300U 21090X   25249.27550836  .00000122  00000+0  29369-3 0  9992
2 49300  87.9087 346.2191 0002284  88.9989 271.1402 13.14504886190265
ONEWEB-0375             
1 49301U 21090Y   25249.23921809 -.00000165  00000+0 -43682-3 0  9994
2 49301  87.9288 331.0407 0002523  97.4637 262.6783 13.20770908193045
ONEWEB-0376             
1 49302U 21090Z   25249.25439002  .00000083  00000+0  17566-3 0  9995
2 49302  87.9280   1.4022 0001564  96.3522 263.7789 13.19727577189005
ONEWEB-0377             
1 49303U 21090AA  25249.22517607  .00000033  00000+0  48569-4 0  9994
2 49303  87.9291 331.0381 0002022 105.1799 254.9558 13.20771870193034
ONEWEB-0378             
1 49304U 21090AB  25249.24722476  .00000131  00000+0  29122-3 0  9991
2 49304  87.9300 331.0464 0002021  97.7268 262.4095 13.20774023192306
ONEWEB-0379             
1 49305U 21090AC  25249.27075737  .00000212  00000+0  53838-3 0  9997
2 49305  87.9088 346.2271 0001811  95.4811 264.6526 13.14503349190269
ONEWEB-0380             
1 49306U 21090AD  25249.25123129  .00000073  00000+0  14892-3 0  9997
2 49306  87.9279   1.4308 0001965 102.4516 257.6837 13.19724383188974
ONEWEB-0381             
1 49307U 21090AE  25249.29763667  .00000078  00000+0  15968-3 0  9999
2 49307  87.9288 331.0334 0002155  97.9782 262.1597 13.20772379192352
